[{"OBJECT_NAME":"STARLINK-11587 [DTC]","OBJECT_ID":"2025-057D","EPOCH":"2025-09-27T17:24:26.301024","MEAN_MOTION":15.71019316,"ECCENTRICITY":0.00010267,"INCLINATION":42.9991,"RA_OF_ASC_NODE":167.1763,"ARG_OF_PERICENTER":223.9888,"MEAN_ANOMALY":136.0898,"EPHEMERIS_TYPE":0,"CLASSIFICATION_TYPE":"U","NORAD_CAT_ID":63310,"ELEMENT_SET_NO":999,"REV_AT_EPOCH":3154,"BSTAR":0.0021547708,"MEAN_MOTION_DOT":0.00287999,"MEAN_MOTION_DDOT":0},{"OBJECT_NAME":"STARLINK-11589 [DTC]","OBJECT_ID":"2025-057E","EPOCH":"2025-09-28T06:00:02.999808","MEAN_MOTION":15.70798196,"ECCENTRICITY":0.00018899,"INCLINATION":43.0003,"RA_OF_ASC_NODE":164.0899,"ARG_OF_PERICENTER":268.8054,"MEAN_ANOMALY":152.1637,"EPHEMERIS_TYPE":0,"CLASSIFICATION_TYPE":"U","NORAD_CAT_ID":63311,"ELEMENT_SET_NO":999,"REV_AT_EPOCH":594,"BSTAR":0.00082365977,"MEAN_MOTION_DOT":0.00106416,"MEAN_MOTION_DDOT":0},{"OBJECT_NAME":"STARLINK-11650 [DTC]","OBJECT_ID":"2025-057F","EPOCH":"2025-09-28T02:19:49.656000","MEAN_MOTION":15.70929063,"ECCENTRICITY":0.00010298,"INCLINATION":42.9985,"RA_OF_ASC_NODE":164.7979,"ARG_OF_PERICENTER":329.2857,"MEAN_ANOMALY":30.7951,"EPHEMERIS_TYPE":0,"CLASSIFICATION_TYPE":"U","NORAD_CAT_ID":63312,"ELEMENT_SET_NO":999,"REV_AT_EPOCH":3163,"BSTAR":0.0026172423,"MEAN_MOTION_DOT":0.00351289,"MEAN_MOTION_DDOT":0},{"OBJECT_NAME":"STARLINK-11648 [DTC]","OBJECT_ID":"2025-057G","EPOCH":"2025-09-28T02:18:30.162816","MEAN_MOTION":15.70927066,"ECCENTRICITY":0.00015221,"INCLINATION":42.9984,"RA_OF_ASC_NODE":164.7896,"ARG_OF_PERICENTER":271.5715,"MEAN_ANOMALY":88.4978,"EPHEMERIS_TYPE":0,"CLASSIFICATION_TYPE":"U","NORAD_CAT_ID":63313,"ELEMENT_SET_NO":999,"REV_AT_EPOCH":3160,"BSTAR":0.0015989835,"MEAN_MOTION_DOT":0.00210779,"MEAN_MOTION_DDOT":0},{"OBJECT_NAME":"STARLINK-11640 [DTC]","OBJECT_ID":"2025-057H","EPOCH":"2025-09-28T03:42:24.944832","MEAN_MOTION":15.70929018,"ECCENTRICITY":0.0002184,"INCLINATION":42.9998,"RA_OF_ASC_NODE":164.364,"ARG_OF_PERICENTER":265.0096,"MEAN_ANOMALY":95.0523,"EPHEMERIS_TYPE":0,"CLASSIFICATION_TYPE":"U","NORAD_CAT_ID":63314,"ELEMENT_SET_NO":999,"REV_AT_EPOCH":3161,"BSTAR":0.0019203967,"MEAN_MOTION_DOT":0.00254616,"MEAN_MOTION_DDOT":0},{"OBJECT_NAME":"STARLINK-11652 [DTC]","OBJECT_ID":"2025-057J","EPOCH":"2025-09-28T01:55:34.146912","MEAN_MOTION":15.70892775,"ECCENTRICITY":0.00022454,"INCLINATION":43.0018,"RA_OF_ASC_NODE":164.6578,"ARG_OF_PERICENTER":273.1486,"MEAN_ANOMALY":86.9124,"EPHEMERIS_TYPE":0,"CLASSIFICATION_TYPE":"U","NORAD_CAT_ID":63315,"ELEMENT_SET_NO":999,"REV_AT_EPOCH":3163,"BSTAR":0.0019819906,"MEAN_MOTION_DOT":0.00262654,"MEAN_MOTION_DDOT":0},{"OBJECT_NAME":"STARLINK-11645 [DTC]","OBJECT_ID":"2025-057K","EPOCH":"2025-09-26T18:23:24.224640","MEAN_MOTION":15.70853447,"ECCENTRICITY":0.00022357,"INCLINATION":42.9997,"RA_OF_ASC_NODE":172.8799,"ARG_OF_PERICENTER":269.0126,"MEAN_ANOMALY":91.0485,"EPHEMERIS_TYPE":0,"CLASSIFICATION_TYPE":"U","NORAD_CAT_ID":63316,"ELEMENT_SET_NO":999,"REV_AT_EPOCH":3142,"BSTAR":0.0010302887,"MEAN_MOTION_DOT":0.00133984,"MEAN_MOTION_DDOT":0},{"OBJECT_NAME":"STARLINK-11633 [DTC]","OBJECT_ID":"2025-057L","EPOCH":"2025-09-28T01:17:20.808384","MEAN_MOTION":15.70935234,"ECCENTRICITY":0.00015174,"INCLINATION":43,"RA_OF_ASC_NODE":164.4475,"ARG_OF_PERICENTER":303.5912,"MEAN_ANOMALY":56.481,"EPHEMERIS_TYPE":0,"CLASSIFICATION_TYPE":"U","NORAD_CAT_ID":63317,"ELEMENT_SET_NO":999,"REV_AT_EPOCH":3160,"BSTAR":0.0024771566,"MEAN_MOTION_DOT":0.00331749,"MEAN_MOTION_DDOT":0},{"OBJECT_NAME":"STARLINK-11593 [DTC]","OBJECT_ID":"2025-057M","EPOCH":"2025-09-28T06:00:02.999808","MEAN_MOTION":15.70824023,"ECCENTRICITY":0.00017287,"INCLINATION":43.0001,"RA_OF_ASC_NODE":163.4138,"ARG_OF_PERICENTER":269.9752,"MEAN_ANOMALY":61.5381,"EPHEMERIS_TYPE":0,"CLASSIFICATION_TYPE":"U","NORAD_CAT_ID":63318,"ELEMENT_SET_NO":999,"REV_AT_EPOCH":593,"BSTAR":0.00037987928,"MEAN_MOTION_DOT":0.00048548,"MEAN_MOTION_DDOT":0},{"OBJECT_NAME":"STARLINK-11588 [DTC]","OBJECT_ID":"2025-057N","EPOCH":"2025-09-28T03:19:29.256384","MEAN_MOTION":15.70914677,"ECCENTRICITY":3.767e-5,"INCLINATION":42.9968,"RA_OF_ASC_NODE":164.233,"ARG_OF_PERICENTER":333.6902,"MEAN_ANOMALY":26.3946,"EPHEMERIS_TYPE":0,"CLASSIFICATION_TYPE":"U","NORAD_CAT_ID":63319,"ELEMENT_SET_NO":999,"REV_AT_EPOCH":3161,"BSTAR":0.0022907418,"MEAN_MOTION_DOT":0.00305525,"MEAN_MOTION_DDOT":0},{"OBJECT_NAME":"STARLINK-33671","OBJECT_ID":"2025-057P","EPOCH":"2025-09-27T23:08:25.955520","MEAN_MOTION":15.27585079,"ECCENTRICITY":0.00013668,"INCLINATION":42.9995,"RA_OF_ASC_NODE":219.2008,"ARG_OF_PERICENTER":271.5952,"MEAN_ANOMALY":88.4743,"EPHEMERIS_TYPE":0,"CLASSIFICATION_TYPE":"U","NORAD_CAT_ID":63320,"ELEMENT_SET_NO":999,"REV_AT_EPOCH":3101,"BSTAR":0.0012730112,"MEAN_MOTION_DOT":0.0003494,"MEAN_MOTION_DDOT":0},{"OBJECT_NAME":"STARLINK-33650","OBJECT_ID":"2025-057Q","EPOCH":"2025-09-28T05:28:30.685152","MEAN_MOTION":15.27618479,"ECCENTRICITY":0.00019362,"INCLINATION":43.001,"RA_OF_ASC_NODE":228.1231,"ARG_OF_PERICENTER":266.8721,"MEAN_ANOMALY":93.1909,"EPHEMERIS_TYPE":0,"CLASSIFICATION_TYPE":"U","NORAD_CAT_ID":63321,"ELEMENT_SET_NO":999,"REV_AT_EPOCH":3089,"BSTAR":0.0020742747,"MEAN_MOTION_DOT":0.00057331,"MEAN_MOTION_DDOT":0},{"OBJECT_NAME":"STARLINK-33689","OBJECT_ID":"2025-057R","EPOCH":"2025-09-28T05:17:24.627552","MEAN_MOTION":15.27622696,"ECCENTRICITY":0.00013962,"INCLINATION":43.002,"RA_OF_ASC_NODE":228.0676,"ARG_OF_PERICENTER":277.7759,"MEAN_ANOMALY":82.2934,"EPHEMERIS_TYPE":0,"CLASSIFICATION_TYPE":"U","NORAD_CAT_ID":63322,"ELEMENT_SET_NO":999,"REV_AT_EPOCH":3093,"BSTAR":0.001865855,"MEAN_MOTION_DOT":0.00051509,"MEAN_MOTION_DDOT":0},{"OBJECT_NAME":"STARLINK-33607","OBJECT_ID":"2025-057S","EPOCH":"2025-09-28T05:48:51.870528","MEAN_MOTION":15.2762329,"ECCENTRICITY":0.00018543,"INCLINATION":43.0016,"RA_OF_ASC_NODE":228.2299,"ARG_OF_PERICENTER":255.5662,"MEAN_ANOMALY":104.4984,"EPHEMERIS_TYPE":0,"CLASSIFICATION_TYPE":"U","NORAD_CAT_ID":63323,"ELEMENT_SET_NO":999,"REV_AT_EPOCH":3089,"BSTAR":0.002018908,"MEAN_MOTION_DOT":0.0005579,"MEAN_MOTION_DDOT":0},{"OBJECT_NAME":"STARLINK-33619","OBJECT_ID":"2025-057T","EPOCH":"2025-09-27T21:13:40.497600","MEAN_MOTION":15.27607127,"ECCENTRICITY":0.00012571,"INCLINATION":43.0045,"RA_OF_ASC_NODE":229.8383,"ARG_OF_PERICENTER":259.1707,"MEAN_ANOMALY":100.9003,"EPHEMERIS_TYPE":0,"CLASSIFICATION_TYPE":"U","NORAD_CAT_ID":63324,"ELEMENT_SET_NO":999,"REV_AT_EPOCH":3088,"BSTAR":0.0013807905,"MEAN_MOTION_DOT":0.00037961,"MEAN_MOTION_DDOT":0},{"OBJECT_NAME":"STARLINK-33612","OBJECT_ID":"2025-057U","EPOCH":"2025-09-28T06:24:01.201248","MEAN_MOTION":15.27618326,"ECCENTRICITY":0.00018478,"INCLINATION":42.9964,"RA_OF_ASC_NODE":228.4144,"ARG_OF_PERICENTER":205.5915,"MEAN_ANOMALY":154.4846,"EPHEMERIS_TYPE":0,"CLASSIFICATION_TYPE":"U","NORAD_CAT_ID":63325,"ELEMENT_SET_NO":999,"REV_AT_EPOCH":3093,"BSTAR":0.0016584816,"MEAN_MOTION_DOT":0.00045713,"MEAN_MOTION_DDOT":0}]
