STARLINK-11587 [DTC]    
1 63310U 25057D   25270.72530441  .00287999  00000+0  21548-2 0  9999
2 63310  42.9991 167.1763 0001026 223.9888 136.0898 15.71019316 31541
STARLINK-11589 [DTC]    
1 63311U 25057E   25271.25003472  .00106416  00000+0  82366-3 0  9998
2 63311  43.0003 164.0899 0001889 268.8054 152.1637 15.70798196  5948
STARLINK-11650 [DTC]    
1 63312U 25057F   25271.09710250  .00351289  00000+0  26172-2 0  9992
2 63312  42.9985 164.7979 0001029 329.2857  30.7951 15.70929063 31635
STARLINK-11648 [DTC]    
1 63313U 25057G   25271.09618244  .00210779  00000+0  15990-2 0  9997
2 63313  42.9984 164.7896 0001522 271.5715  88.4978 15.70927066 31600
STARLINK-11640 [DTC]    
1 63314U 25057H   25271.15445538  .00254616  00000+0  19204-2 0  9999
2 63314  42.9998 164.3640 0002184 265.0096  95.0523 15.70929018 31614
STARLINK-11652 [DTC]    
1 63315U 25057J   25271.08025633  .00262654  00000+0  19820-2 0  9997
2 63315  43.0018 164.6578 0002245 273.1486  86.9124 15.70892775 31631
STARLINK-11645 [DTC]    
1 63316U 25057K   25269.76625260  .00133984  00000+0  10303-2 0  9992
2 63316  42.9997 172.8799 0002235 269.0126  91.0485 15.70853447 31423
STARLINK-11633 [DTC]    
1 63317U 25057L   25271.05371306  .00331749  00000+0  24772-2 0  9991
2 63317  43.0000 164.4475 0001517 303.5912  56.4810 15.70935234 31600
STARLINK-11593 [DTC]    
1 63318U 25057M   25271.25003472  .00048548  00000+0  37988-3 0  9996
2 63318  43.0001 163.4138 0001728 269.9752  61.5381 15.70824023  5938
STARLINK-11588 [DTC]    
1 63319U 25057N   25271.13853306  .00305525  00000+0  22907-2 0  9998
2 63319  42.9968 164.2330 0000376 333.6902  26.3946 15.70914677 31611
STARLINK-33671          
1 63320U 25057P   25270.96418930  .00034940  00000+0  12730-2 0  9993
2 63320  42.9995 219.2008 0001366 271.5952  88.4743 15.27585079 31011
STARLINK-33650          
1 63321U 25057Q   25271.22813293  .00057331  00000+0  20743-2 0  9997
2 63321  43.0010 228.1231 0001936 266.8721  93.1909 15.27618479 30896
STARLINK-33689          
1 63322U 25057R   25271.22042393  .00051509  00000+0  18659-2 0  9997
2 63322  43.0020 228.0676 0001396 277.7759  82.2934 15.27622696 30930
STARLINK-33607          
1 63323U 25057S   25271.24226702  .00055790  00000+0  20189-2 0  9995
2 63323  43.0016 228.2299 0001854 255.5662 104.4984 15.27623290 30893
STARLINK-33619          
1 63324U 25057T   25270.88449650  .00037961  00000+0  13808-2 0  9994
2 63324  43.0045 229.8383 0001257 259.1707 100.9003 15.27607127 30887
STARLINK-33612          
1 63325U 25057U   25271.26668057  .00045713  00000+0  16585-2 0  9991
2 63325  42.9964 228.4144 0001847 205.5915 154.4846 15.27618326 30935
